<?xml version="1.0" encoding="UTF-8"?>
<ndm xmlns:xsi="http://www.w3.org/2001/XMLSchema-instance" xsi:noNamespaceSchemaLocation="https://sanaregistry.org/r/ndmxml_unqualified/ndmxml-2.0.0-master-2.0.xsd">
<omm id="CCSDS_OMM_VERS" version="2.0">
<header><CREATION_DATE/><ORIGINATOR/></header><body><segment><metadata><OBJECT_NAME>ORBCOMM FM05</OBJECT_NAME><OBJECT_ID>1997-084F</OBJECT_ID><CENTER_NAME>EARTH</CENTER_NAME><REF_FRAME>TEME</REF_FRAME><TIME_SYSTEM>UTC</TIME_SYSTEM><MEAN_ELEMENT_THEORY>SGP4</MEAN_ELEMENT_THEORY></metadata><data><meanElements><EPOCH>2024-06-12T20:14:13.627392</EPOCH><MEAN_MOTION>14.42925338</MEAN_MOTION><ECCENTRICITY>.0003469</ECCENTRICITY><INCLINATION>45.0168</INCLINATION><RA_OF_ASC_NODE>337.4328</RA_OF_ASC_NODE><ARG_OF_PERICENTER>179.3894</ARG_OF_PERICENTER><MEAN_ANOMALY>180.6961</MEAN_ANOMALY></meanElements><tleParameters><EPHEMERIS_TYPE>0</EPHEMERIS_TYPE><CLASSIFICATION_TYPE>U</CLASSIFICATION_TYPE><NORAD_CAT_ID>25117</NORAD_CAT_ID><ELEMENT_SET_NO>999</ELEMENT_SET_NO><REV_AT_EPOCH>38720</REV_AT_EPOCH><BSTAR>.74636E-3</BSTAR><MEAN_MOTION_DOT>.2376E-4</MEAN_MOTION_DOT><MEAN_MOTION_DDOT>0</MEAN_MOTION_DDOT></tleParameters></data></segment></body></omm>
<omm id="CCSDS_OMM_VERS" version="2.0">
<header><CREATION_DATE/><ORIGINATOR/></header><body><segment><metadata><OBJECT_NAME>ORBCOMM FM06</OBJECT_NAME><OBJECT_ID>1997-084G</OBJECT_ID><CENTER_NAME>EARTH</CENTER_NAME><REF_FRAME>TEME</REF_FRAME><TIME_SYSTEM>UTC</TIME_SYSTEM><MEAN_ELEMENT_THEORY>SGP4</MEAN_ELEMENT_THEORY></metadata><data><meanElements><EPOCH>2024-06-12T21:34:02.400960</EPOCH><MEAN_MOTION>14.42989410</MEAN_MOTION><ECCENTRICITY>.0002829</ECCENTRICITY><INCLINATION>45.0159</INCLINATION><RA_OF_ASC_NODE>337.3193</RA_OF_ASC_NODE><ARG_OF_PERICENTER>191.3332</ARG_OF_PERICENTER><MEAN_ANOMALY>317.2598</MEAN_ANOMALY></meanElements><tleParameters><EPHEMERIS_TYPE>0</EPHEMERIS_TYPE><CLASSIFICATION_TYPE>U</CLASSIFICATION_TYPE><NORAD_CAT_ID>25118</NORAD_CAT_ID><ELEMENT_SET_NO>999</ELEMENT_SET_NO><REV_AT_EPOCH>38812</REV_AT_EPOCH><BSTAR>.87391E-3</BSTAR><MEAN_MOTION_DOT>.2811E-4</MEAN_MOTION_DOT><MEAN_MOTION_DDOT>0</MEAN_MOTION_DDOT></tleParameters></data></segment></body></omm>
<omm id="CCSDS_OMM_VERS" version="2.0">
<header><CREATION_DATE/><ORIGINATOR/></header><body><segment><metadata><OBJECT_NAME>ORBCOMM FM07</OBJECT_NAME><OBJECT_ID>1997-084H</OBJECT_ID><CENTER_NAME>EARTH</CENTER_NAME><REF_FRAME>TEME</REF_FRAME><TIME_SYSTEM>UTC</TIME_SYSTEM><MEAN_ELEMENT_THEORY>SGP4</MEAN_ELEMENT_THEORY></metadata><data><meanElements><EPOCH>2024-06-12T20:43:09.299712</EPOCH><MEAN_MOTION>14.42896096</MEAN_MOTION><ECCENTRICITY>.0004034</ECCENTRICITY><INCLINATION>45.0155</INCLINATION><RA_OF_ASC_NODE>338.0451</RA_OF_ASC_NODE><ARG_OF_PERICENTER>168.8162</ARG_OF_PERICENTER><MEAN_ANOMALY>191.2779</MEAN_ANOMALY></meanElements><tleParameters><EPHEMERIS_TYPE>0</EPHEMERIS_TYPE><CLASSIFICATION_TYPE>U</CLASSIFICATION_TYPE><NORAD_CAT_ID>25119</NORAD_CAT_ID><ELEMENT_SET_NO>999</ELEMENT_SET_NO><REV_AT_EPOCH>38813</REV_AT_EPOCH><BSTAR>.75175E-3</BSTAR><MEAN_MOTION_DOT>.2393E-4</MEAN_MOTION_DOT><MEAN_MOTION_DDOT>0</MEAN_MOTION_DDOT></tleParameters></data></segment></body></omm>
<omm id="CCSDS_OMM_VERS" version="2.0">
<header><CREATION_DATE/><ORIGINATOR/></header><body><segment><metadata><OBJECT_NAME>ORBCOMM FM03</OBJECT_NAME><OBJECT_ID>1998-007B</OBJECT_ID><CENTER_NAME>EARTH</CENTER_NAME><REF_FRAME>TEME</REF_FRAME><TIME_SYSTEM>UTC</TIME_SYSTEM><MEAN_ELEMENT_THEORY>SGP4</MEAN_ELEMENT_THEORY></metadata><data><meanElements><EPOCH>2024-06-12T18:21:59.546592</EPOCH><MEAN_MOTION>14.32310694</MEAN_MOTION><ECCENTRICITY>.0046416</ECCENTRICITY><INCLINATION>107.9707</INCLINATION><RA_OF_ASC_NODE>97.8174</RA_OF_ASC_NODE><ARG_OF_PERICENTER>175.5051</ARG_OF_PERICENTER><MEAN_ANOMALY>184.6513</MEAN_ANOMALY></meanElements><tleParameters><EPHEMERIS_TYPE>0</EPHEMERIS_TYPE><CLASSIFICATION_TYPE>U</CLASSIFICATION_TYPE><NORAD_CAT_ID>25158</NORAD_CAT_ID><ELEMENT_SET_NO>999</ELEMENT_SET_NO><REV_AT_EPOCH>37110</REV_AT_EPOCH><BSTAR>.56225E-3</BSTAR><MEAN_MOTION_DOT>.1407E-4</MEAN_MOTION_DOT><MEAN_MOTION_DDOT>0</MEAN_MOTION_DDOT></tleParameters></data></segment></body></omm>
<omm id="CCSDS_OMM_VERS" version="2.0">
<header><CREATION_DATE/><ORIGINATOR/></header><body><segment><metadata><OBJECT_NAME>ORBCOMM FM04</OBJECT_NAME><OBJECT_ID>1998-007C</OBJECT_ID><CENTER_NAME>EARTH</CENTER_NAME><REF_FRAME>TEME</REF_FRAME><TIME_SYSTEM>UTC</TIME_SYSTEM><MEAN_ELEMENT_THEORY>SGP4</MEAN_ELEMENT_THEORY></metadata><data><meanElements><EPOCH>2024-06-12T19:37:18.059232</EPOCH><MEAN_MOTION>14.32580212</MEAN_MOTION><ECCENTRICITY>.0041939</ECCENTRICITY><INCLINATION>107.9691</INCLINATION><RA_OF_ASC_NODE>100.8837</RA_OF_ASC_NODE><ARG_OF_PERICENTER>173.2801</ARG_OF_PERICENTER><MEAN_ANOMALY>186.8908</MEAN_ANOMALY></meanElements><tleParameters><EPHEMERIS_TYPE>0</EPHEMERIS_TYPE><CLASSIFICATION_TYPE>U</CLASSIFICATION_TYPE><NORAD_CAT_ID>25159</NORAD_CAT_ID><ELEMENT_SET_NO>999</ELEMENT_SET_NO><REV_AT_EPOCH>37128</REV_AT_EPOCH><BSTAR>.67206E-3</BSTAR><MEAN_MOTION_DOT>.1714E-4</MEAN_MOTION_DOT><MEAN_MOTION_DDOT>0</MEAN_MOTION_DDOT></tleParameters></data></segment></body></omm>
<omm id="CCSDS_OMM_VERS" version="2.0">
<header><CREATION_DATE/><ORIGINATOR/></header><body><segment><metadata><OBJECT_NAME>ORBCOMM FM17</OBJECT_NAME><OBJECT_ID>1998-046A</OBJECT_ID><CENTER_NAME>EARTH</CENTER_NAME><REF_FRAME>TEME</REF_FRAME><TIME_SYSTEM>UTC</TIME_SYSTEM><MEAN_ELEMENT_THEORY>SGP4</MEAN_ELEMENT_THEORY></metadata><data><meanElements><EPOCH>2024-06-12T12:46:32.304576</EPOCH><MEAN_MOTION>14.33279726</MEAN_MOTION><ECCENTRICITY>.0002471</ECCENTRICITY><INCLINATION>44.9934</INCLINATION><RA_OF_ASC_NODE>199.8324</RA_OF_ASC_NODE><ARG_OF_PERICENTER>219.4098</ARG_OF_PERICENTER><MEAN_ANOMALY>140.6568</MEAN_ANOMALY></meanElements><tleParameters><EPHEMERIS_TYPE>0</EPHEMERIS_TYPE><CLASSIFICATION_TYPE>U</CLASSIFICATION_TYPE><NORAD_CAT_ID>25413</NORAD_CAT_ID><ELEMENT_SET_NO>999</ELEMENT_SET_NO><REV_AT_EPOCH>35010</REV_AT_EPOCH><BSTAR>.40087E-3</BSTAR><MEAN_MOTION_DOT>.973E-5</MEAN_MOTION_DOT><MEAN_MOTION_DDOT>0</MEAN_MOTION_DDOT></tleParameters></data></segment></body></omm>
<omm id="CCSDS_OMM_VERS" version="2.0">
<header><CREATION_DATE/><ORIGINATOR/></header><body><segment><metadata><OBJECT_NAME>ORBCOMM FM18</OBJECT_NAME><OBJECT_ID>1998-046B</OBJECT_ID><CENTER_NAME>EARTH</CENTER_NAME><REF_FRAME>TEME</REF_FRAME><TIME_SYSTEM>UTC</TIME_SYSTEM><MEAN_ELEMENT_THEORY>SGP4</MEAN_ELEMENT_THEORY></metadata><data><meanElements><EPOCH>2024-06-12T07:45:54.051264</EPOCH><MEAN_MOTION>14.36082139</MEAN_MOTION><ECCENTRICITY>.0004178</ECCENTRICITY><INCLINATION>44.9925</INCLINATION><RA_OF_ASC_NODE>127.2041</RA_OF_ASC_NODE><ARG_OF_PERICENTER>244.2019</ARG_OF_PERICENTER><MEAN_ANOMALY>115.8397</MEAN_ANOMALY></meanElements><tleParameters><EPHEMERIS_TYPE>0</EPHEMERIS_TYPE><CLASSIFICATION_TYPE>U</CLASSIFICATION_TYPE><NORAD_CAT_ID>25414</NORAD_CAT_ID><ELEMENT_SET_NO>999</ELEMENT_SET_NO><REV_AT_EPOCH>35103</REV_AT_EPOCH><BSTAR>.80866E-3</BSTAR><MEAN_MOTION_DOT>.2234E-4</MEAN_MOTION_DOT><MEAN_MOTION_DDOT>0</MEAN_MOTION_DDOT></tleParameters></data></segment></body></omm>
<omm id="CCSDS_OMM_VERS" version="2.0">
<header><CREATION_DATE/><ORIGINATOR/></header><body><segment><metadata><OBJECT_NAME>ORBCOMM FM19</OBJECT_NAME><OBJECT_ID>1998-046C</OBJECT_ID><CENTER_NAME>EARTH</CENTER_NAME><REF_FRAME>TEME</REF_FRAME><TIME_SYSTEM>UTC</TIME_SYSTEM><MEAN_ELEMENT_THEORY>SGP4</MEAN_ELEMENT_THEORY></metadata><data><meanElements><EPOCH>2024-06-13T04:49:10.253568</EPOCH><MEAN_MOTION>14.35920185</MEAN_MOTION><ECCENTRICITY>.000294</ECCENTRICITY><INCLINATION>44.9933</INCLINATION><RA_OF_ASC_NODE>124.5139</RA_OF_ASC_NODE><ARG_OF_PERICENTER>249.1676</ARG_OF_PERICENTER><MEAN_ANOMALY>125.9480</MEAN_ANOMALY></meanElements><tleParameters><EPHEMERIS_TYPE>0</EPHEMERIS_TYPE><CLASSIFICATION_TYPE>U</CLASSIFICATION_TYPE><NORAD_CAT_ID>25415</NORAD_CAT_ID><ELEMENT_SET_NO>999</ELEMENT_SET_NO><REV_AT_EPOCH>35132</REV_AT_EPOCH><BSTAR>.74109E-3</BSTAR><MEAN_MOTION_DOT>.2028E-4</MEAN_MOTION_DOT><MEAN_MOTION_DDOT>0</MEAN_MOTION_DDOT></tleParameters></data></segment></body></omm>

</ndm>
