ORBCOMM FM05            
1 25117U 97084F   24164.84321328  .00002376  00000+0  74636-3 0  9998
2 25117  45.0168 337.4328 0003469 179.3894 180.6961 14.42925338387207
ORBCOMM FM06            
1 25118U 97084G   24164.89863890  .00002811  00000+0  87391-3 0  9995
2 25118  45.0159 337.3193 0002829 191.3332 317.2598 14.42989410388124
ORBCOMM FM07            
1 25119U 97084H   24164.86330208  .00002393  00000+0  75175-3 0  9997
2 25119  45.0155 338.0451 0004034 168.8162 191.2779 14.42896096388135
ORBCOMM FM03            
1 25158U 98007B   24164.76527253  .00001407  00000+0  56225-3 0  9993
2 25158 107.9707  97.8174 0046416 175.5051 184.6513 14.32310694371108
ORBCOMM FM04            
1 25159U 98007C   24164.81757013  .00001714  00000+0  67206-3 0  9991
2 25159 107.9691 100.8837 0041939 173.2801 186.8908 14.32580212371281
ORBCOMM FM17            
1 25413U 98046A   24164.53231834  .00000973  00000+0  40087-3 0  9998
2 25413  44.9934 199.8324 0002471 219.4098 140.6568 14.33279726350106
ORBCOMM FM18            
1 25414U 98046B   24164.32354226  .00002234  00000+0  80866-3 0  9998
2 25414  44.9925 127.2041 0004178 244.2019 115.8397 14.36082139351033
ORBCOMM FM19            
1 25415U 98046C   24165.20081312  .00002028  00000+0  74109-3 0  9994
2 25415  44.9933 124.5139 0002940 249.1676 125.9480 14.35920185351327
